EUTELSAT 7A             
1 28187U 04008A   25199.37822714  .00000106  00000+0  00000+0 0  9993
2 28187   4.9780  76.0193 0001553  74.5059 142.8398  1.00272283 78001
EUTELSAT HOTBIRD 13E    
1 28946U 06007B   25199.34308382 -.00000154  00000+0  00000+0 0  9998
2 28946   1.2059  89.6672 0006142 184.8693 148.2727  0.98118101 70960
EUTELSAT HOTBIRD 13B    
1 29270U 06032A   25199.56333156  .00000161  00000+0  00000+0 0  9995
2 29270   0.7961  85.9889 0003616  35.2148  51.2843  1.00272263 43969
EUTELSAT HOTBIRD 13C    
1 33459U 08065A   25199.34013714 -.00000096  00000+0  00000+0 0  9996
2 33459   2.0882  83.2103 0003207  41.6157 281.4908  1.00271438 43992
EUTELSAT 36B            
1 36101U 09065A   25199.56679824  .00000118  00000+0  00000+0 0  9992
2 36101   0.0537 342.2840 0005639 135.5053  73.3543  1.00268966 57360
EUTELSAT KA-SAT 9A      
1 37258U 10069A   25199.55856487  .00000068  00000+0  00000+0 0  9997
2 37258   0.0628 302.7994 0003698 189.3387  14.5394  1.00270825 53472
EUTELSAT 7 WEST A       
1 37816U 11051A   25199.48440984 -.00000054  00000+0  00000+0 0  9998
2 37816   0.0637 341.1117 0004675 155.2308 327.2570  1.00270739 50557
